{
  "norad_id": 64509,
  "name": "KUIPER-00049",
  "history": [
    {
      "epoch": "2026-03-28T21:03:23.381280Z",
      "apogee_km": 618.6254716611138,
      "perigee_km": 617.5816325707374,
      "latitude_deg": 1.6737508165129963e-05,
      "longitude_deg": 1.3467956213949588,
      "height_km": 619.2700718532669,
      "semi_major_axis_km": 6996.240552115925,
      "eccentricity": 7.46e-05,
      "inclination_deg": 51.9006,
      "raan_deg": 143.4857,
      "arg_perigee_deg": 216.7802,
      "mean_anomaly_deg": 143.3111,
      "mean_motion_rev_day": 14.83561867
    }
  ]
}