{"fetched_at":"2026-03-29T16:36:15Z","count":15609,"tles":[{"name":"KUIPER-00049","line1":"1 64509U 25134K   26087.87735395  .00004678  00000+0  58949-3 0  9991","line2":"2 64509  51.9006 143.4857 0000746 216.7802 143.3111 14.83561867 42988","category":"Other"}]}